NORAD_CAT_ID,OBJECT_NAME,OBJECT_TYPE,EPOCH,MEAN_MOTION,ECCENTRICITY,INCLINATION,RA_OF_ASC_NODE,ARG_OF_PERICENTER,MEAN_ANOMALY,BSTAR,MEAN_MOTION_DOT,MEAN_MOTION_DDOT,TLE_LINE0,TLE_LINE1,TLE_LINE2,SEMIMAJOR_AXIS,PERIOD,APOGEE,PERIGEE,DECAYED
55962.0,STARLINK-5906,PAYLOAD,2023-10-23 00:00:02,14.98322082,0.0002821,70.0006,294.6671,263.4756,87.2943,0.0019641,0.00023416,0.0,0 STARLINK-5906,1 55962U 23037BA  23296.00002315  .00023416  00000-0  19641-2 0  9994,2 55962  70.0006 294.6671 0002821 263.4756  87.2943 14.98322082  5897,6950.217,96.108,574.043,570.122,0.0
55962.0,STARLINK-5906,PAYLOAD,2023-10-23 04:50:55,14.98323411,0.0002544,69.9988,294.1582,266.6108,93.476,-4.8574e-06,-1.51e-06,0.0,0 STARLINK-5906,1 55962U 23037BA  23296.20203283 -.00000151  00000-0 -48574-5 0  9996,2 55962  69.9988 294.1582 0002544 266.6108  93.4760 14.98323411 34724,6950.213,96.107,573.846,570.31,0.0
55962.0,STARLINK-5906,PAYLOAD,2023-10-23 17:40:00,14.98319383,0.0002467,69.9989,292.8107,259.3829,100.7052,0.00010487,1.158e-05,0.0,0 STARLINK-5906,1 55962U 23037BA  23296.73611399  .00001158  00000-0  10487-3 0  9991,2 55962  69.9989 292.8107 0002467 259.3829 100.7052 14.98319383 34466,6950.226,96.108,573.805,570.376,0.0
55962.0,STARLINK-5906,PAYLOAD,2023-10-24 04:52:56,14.98331462,0.0002233,69.9997,291.6324,273.9749,86.1155,-8.4398e-05,-1.1e-05,0.0,0 STARLINK-5906,1 55962U 23037BA  23297.20343168 -.00001100  00000-0 -84398-4 0  9992,2 55962  69.9997 291.6324 0002233 273.9749  86.1155 14.98331462 34875,6950.188,96.107,573.605,570.501,0.0
55962.0,STARLINK-5906,PAYLOAD,2023-10-24 09:41:20,14.98337443,0.0002576,69.999,291.1278,266.8236,93.2628,-0.00012221,-1.551e-05,0.0,0 STARLINK-5906,1 55962U 23037BA  23297.40370787 -.00001551  00000-0 -12221-3 0  9996,2 55962  69.9990 291.1278 0002576 266.8236  93.2628 14.98337443 34568,6950.17,96.107,573.825,570.245,0.0
55962.0,STARLINK-5906,PAYLOAD,2023-10-25 08:07:12,14.98331514,0.0002577,69.9997,288.7712,260.3883,99.6985,0.00035918,4.195e-05,0.0,0 STARLINK-5906,1 55962U 23037BA  23298.33833846  .00004195  00000-0  35918-3 0  9992,2 55962  69.9997 288.7712 0002577 260.3883  99.6985 14.98331514 35041,6950.188,96.107,573.844,570.262,0.0
55962.0,STARLINK-5906,PAYLOAD,2023-10-26 04:56:58,14.9833151,0.0002462,69.9989,286.5829,273.6718,86.416,-5.2207e-05,-7.16e-06,0.0,0 STARLINK-5906,1 55962U 23037BA  23299.20622885 -.00000716  00000-0 -52207-4 0  9996,2 55962  69.9989 286.5829 0002462 273.6718  86.4160 14.98331510 35173,6950.188,96.107,573.764,570.342,0.0
55962.0,STARLINK-5906,PAYLOAD,2023-10-26 09:45:21,14.98335432,0.0002409,69.9992,286.0778,277.5071,82.5815,6.2461e-05,6.52e-06,0.0,0 STARLINK-5906,1 55962U 23037BA  23299.40650336  .00000652  00000-0  62461-4 0  9990,2 55962  69.9992 286.0778 0002409 277.5071  82.5815 14.98335432 34867,6950.176,96.107,573.715,570.367,0.0
55962.0,STARLINK-5906,PAYLOAD,2023-10-26 16:09:53,14.98357315,0.0002589,69.9992,285.4038,274.8142,85.2722,-0.00042198,-5.128e-05,0.0,0 STARLINK-5906,1 55962U 23037BA  23299.67353877 -.00005128  00000-0 -42198-3 0  9998,2 55962  69.9992 285.4038 0002589 274.8142  85.2722 14.98357315 34903,6950.108,96.105,573.773,570.174,0.0
55962.0,STARLINK-5906,PAYLOAD,2023-10-27 04:58:59,14.98320757,0.0002085,69.999,284.0572,264.2414,95.8507,-0.00021002,-2.597e-05,0.0,0 STARLINK-5906,1 55962U 23037BA  23300.20763629 -.00002597  00000-0 -21002-3 0  9998,2 55962  69.9990 284.0572 0002085 264.2414  95.8507 14.98320757 35320,6950.221,96.108,573.536,570.637,0.0
55962.0,STARLINK-5906,PAYLOAD,2023-10-27 09:47:22,14.9834268,0.0001867,69.9992,283.5524,270.044,90.0505,-0.00020044,-2.484e-05,0.0,0 STARLINK-5906,1 55962U 23037BA  23300.40790288 -.00002484  00000-0 -20044-3 0  9991,2 55962  69.9992 283.5524 0001867 270.0440  90.0505 14.98342680 35351,6950.154,96.106,573.316,570.721,0.0
55962.0,STARLINK-5906,PAYLOAD,2023-10-27 22:36:31,14.98285705,0.0002862,70.0002,282.2062,265.3292,94.754,-0.00040428,-4.908e-05,0.0,0 STARLINK-5906,1 55962U 23037BA  23300.94203051 -.00004908  00000-0 -40428-3 0  9998,2 55962  70.0002 282.2062 0002862 265.3292  94.7540 14.98285705 35092,6950.33,96.11,574.184,570.206,0.0
55962.0,STARLINK-5906,PAYLOAD,2023-10-28 00:12:45,14.98209215,0.0003848,70.0004,282.038,281.2713,78.8013,-0.0012441,-0.00014861,0.0,0 STARLINK-5906,1 55962U 23037BA  23301.00885990 -.00014861  00000-0 -12441-2 0  9996,2 55962  70.0004 282.0380 0003848 281.2713  78.8013 14.98209215 35444,6950.566,96.115,575.106,569.757,0.0
55962.0,STARLINK-5906,PAYLOAD,2023-10-28 08:13:46,14.97985663,0.000233,69.9996,281.1966,265.8029,94.2863,-0.0035042,-0.00041289,0.0,0 STARLINK-5906,1 55962U 23037BA  23301.34289885 -.00041289  00000-0 -35042-2 0  9990,2 55962  69.9996 281.1966 0002330 265.8029  94.2863 14.97985663 35491,6951.258,96.129,574.743,571.503,0.0
55962.0,STARLINK-5906,PAYLOAD,2023-10-29 05:04:37,14.97428016,0.0002726,69.9999,279.0122,263.9677,96.1171,-0.0086102,-0.00099055,0.0,0 STARLINK-5906,1 55962U 23037BA  23302.21154114 -.00099055  00000-0 -86102-2 0  9990,2 55962  69.9999 279.0122 0002726 263.9677  96.1171 14.97428016 35623,6952.984,96.165,576.744,572.953,0.0
55962.0,STARLINK-5906,PAYLOAD,2023-10-29 06:40:48,14.97421838,0.0002657,69.9999,278.8441,263.0379,97.0478,-0.0084715,-0.00097466,0.0,0 STARLINK-5906,1 55962U 23037BA  23302.27833880 -.00097466  00000-0 -84715-2 0  9992,2 55962  69.9999 278.8441 0002657 263.0379  97.0478 14.97421838 35295,6953.003,96.165,576.715,573.02,0.0
55962.0,STARLINK-5906,PAYLOAD,2023-10-30 22:00:00,14.96703719,0.000286,70.0013,274.7215,267.6548,279.3572,0.0020807,0.00023797,0.0,0 STARLINK-5906,1 55962U 23037BA  23303.91667824  .00023797  00000-0  20807-2 0  9993,2 55962  70.0013 274.7215 0002860 267.6548 279.3572 14.96703719 35888,6955.227,96.211,579.081,575.102,0.0
55962.0,STARLINK-5906,PAYLOAD,2023-10-31 14:00:01,14.96733563,0.0002775,70.0011,273.0449,272.3064,265.7921,-0.0030297,-0.00034613,0.0,0 STARLINK-5906,1 55962U 23037BA  23304.58334491 -.00034613  00000-0 -30297-2 0  9993,2 55962  70.0011 273.0449 0002775 272.3064 265.7921 14.96733563 35986,6955.134,96.21,578.929,575.069,0.0
55962.0,STARLINK-5906,PAYLOAD,2023-10-31 22:00:01,14.96728484,0.0002789,70.0014,272.2066,267.2445,266.4644,0.0017109,0.00019552,0.0,0 STARLINK-5906,1 55962U 23037BA  23304.91668981  .00019552  00000-0  17109-2 0  9994,2 55962  70.0014 272.2066 0002789 267.2445 266.4644 14.96728484  5877,6955.15,96.21,578.955,575.075,0.0
55962.0,STARLINK-5906,PAYLOAD,2023-11-01 06:00:00,14.9672909,0.0002877,70.0013,271.3683,274.3349,254.8858,-0.0029009,-0.00033149,0.0,0 STARLINK-5906,1 55962U 23037BA  23305.25001157 -.00033149  00000-0 -29009-2 0  9990,2 55962  70.0013 271.3683 0002877 274.3349 254.8858 14.96729090 36080,6955.148,96.21,579.014,575.012,0.0
55962.0,STARLINK-5906,PAYLOAD,2023-11-01 14:00:01,14.96716295,0.0002874,70.0011,270.5299,271.9839,252.849,-0.0025482,-0.00029137,0.0,0 STARLINK-5906,1 55962U 23037BA  23305.58335648 -.00029137  00000-0 -25482-2 0  9994,2 55962  70.0011 270.5299 0002874 271.9839 252.8490 14.96716295  5827,6955.188,96.211,579.052,575.054,0.0
55962.0,STARLINK-5906,PAYLOAD,2023-11-01 22:00:00,14.96715352,0.0002895,70.0015,269.6917,266.8407,253.4582,0.0015732,0.00017961,0.0,0 STARLINK-5906,1 55962U 23037BA  23305.91667824  .00017961  00000-0  15732-2 0  9992,2 55962  70.0015 269.6917 0002895 266.8407 253.4582 14.96715352 36189,6955.191,96.211,579.069,575.042,0.0
55962.0,STARLINK-5906,PAYLOAD,2023-11-02 06:54:36,14.96711166,0.0002752,69.9993,268.759,273.7893,86.2951,6.6759e-05,6.73e-06,0.0,0 STARLINK-5906,1 55962U 23037BA  23306.28792746  .00000673  00000-0  66759-4 0  9994,2 55962  69.9993 268.7590 0002752 273.7893  86.2951 14.96711166 36233,6955.204,96.211,578.983,575.154,0.0
55962.0,STARLINK-5906,PAYLOAD,2023-11-03 03:45:41,14.96723452,0.0002244,70.0,266.573,265.7222,94.3679,8.2994e-05,8.59e-06,0.0,0 STARLINK-5906,1 55962U 23037BA  23307.15673475  .00000859  00000-0  82994-4 0  9993,2 55962  70.0000 266.5730 0002244 265.7222  94.3679 14.96723452 36362,6955.165,96.21,578.591,575.47,0.0
55962.0,STARLINK-5906,PAYLOAD,2023-11-03 06:58:10,14.96721294,0.0002405,69.9998,266.2364,263.6784,96.41,4.6416e-05,4.4e-06,0.0,0 STARLINK-5906,1 55962U 23037BA  23307.29040013  .00000440  00000-0  46416-4 0  9999,2 55962  69.9998 266.2364 0002405 263.6784  96.4100 14.96721294 36043,6955.172,96.21,578.71,575.364,0.0
55962.0,STARLINK-5906,PAYLOAD,2023-11-03 21:24:19,14.96713705,0.0002628,69.9999,264.7245,267.853,92.2327,-6.8318e-05,-8.73e-06,0.0,0 STARLINK-5906,1 55962U 23037BA  23307.89189476 -.00000873  00000-0 -68318-4 0  9999,2 55962  69.9999 264.7245 0002628 267.8530  92.2327 14.96713705 36477,6955.196,96.211,578.888,575.233,0.0
55962.0,STARLINK-5906,PAYLOAD,2023-11-04 07:01:45,14.96712179,0.0002726,69.9995,263.716,267.7855,92.2991,3.7591e-05,3.39e-06,0.0,0 STARLINK-5906,1 55962U 23037BA  23308.29288593  .00000339  00000-0  37591-4 0  9998,2 55962  69.9995 263.7160 0002726 267.7855  92.2991 14.96712179 36196,6955.2,96.211,578.961,575.169,0.0
55962.0,STARLINK-5906,PAYLOAD,2023-11-04 21:27:53,14.96713218,0.0002682,69.9997,262.2031,266.2966,93.7885,1.5596e-05,8.7e-07,0.0,0 STARLINK-5906,1 55962U 23037BA  23308.89437358  .00000087  00000-0  15596-4 0  9990,2 55962  69.9997 262.2031 0002682 266.2966  93.7885 14.96713218 36280,6955.197,96.211,578.928,575.197,0.0
55962.0,STARLINK-5906,PAYLOAD,2023-11-05 03:52:50,14.96723854,0.0002863,69.9991,261.5315,269.9259,90.1572,5.4217e-05,5.29e-06,0.0,0 STARLINK-5906,1 55962U 23037BA  23309.16169373  .00000529  00000-0  54217-4 0  9994,2 55962  69.9991 261.5315 0002863 269.9259  90.1572 14.96723854 36660,6955.164,96.21,579.02,575.038,0.0
55962.0,STARLINK-5906,PAYLOAD,2023-11-05 07:05:18,14.96727198,0.0002716,69.9998,261.1948,269.4725,90.6121,9.5796e-05,1.005e-05,0.0,0 STARLINK-5906,1 55962U 23037BA  23309.29535386  .00001005  00000-0  95796-4 0  9996,2 55962  69.9998 261.1948 0002716 269.4725  90.6121 14.96727198 36340,6955.154,96.21,578.908,575.13,0.0
